{"type": "FeatureCollection", "features": [{"type": "Feature", "properties": {"norad_id": 22490, "name": "SCD 1", "group": "resource", "lat": -22.10713982088731, "lon": -136.5413701709385, "alt_km": 712.9288807210878, "timestamp": "2025-12-02T08:59:32.375898+00:00", "meta": {"OBJECT_NAME": "SCD 1", "OBJECT_ID": "1993-009B", "EPOCH": "2025-12-02T04:55:15.970080", "MEAN_MOTION": 14.4598626, "ECCENTRICITY": 0.0041871, "INCLINATION": 24.971, "RA_OF_ASC_NODE": 343.7165, "ARG_OF_PERICENTER": 212.9726, "MEAN_ANOMALY": 225.06, "EPHEMERIS_TYPE": 0, "CLASSIFICATION_TYPE": "U", "NORAD_CAT_ID": 22490, "ELEMENT_SET_NO": 999, "REV_AT_EPOCH": 73257, "BSTAR": 0.00010663, "MEAN_MOTION_DOT": 5.76e-06, "MEAN_MOTION_DDOT": 0}, "tle": {"line1": "1 22490U 93009B   25336.20504595  .00000576  00000+0  10663-3 0  9993", "line2": "2 22490  24.9710 343.7165 0041871 212.9726 225.0600 14.45986260732575"}}, "geometry": {"type": "Point", "coordinates": [-136.5413701709385, -22.10713982088731]}}, {"type": "Feature", "properties": {"norad_id": 25397, "name": "TECHSAT 1B (GO-32)", "group": "resource", "lat": -30.227088423696912, "lon": -35.35873671435194, "alt_km": 816.9128957221819, "timestamp": "2025-12-02T08:59:32.375926+00:00", "meta": {"OBJECT_NAME": "TECHSAT 1B (GO-32)", "OBJECT_ID": "1998-043D", "EPOCH": "2025-12-01T23:01:13.773216", "MEAN_MOTION": 14.24372045, "ECCENTRICITY": 0.0002262, "INCLINATION": 98.9914, "RA_OF_ASC_NODE": 318.9231, "ARG_OF_PERICENTER": 75.0974, "MEAN_ANOMALY": 285.0454, "EPHEMERIS_TYPE": 0, "CLASSIFICATION_TYPE": "U", "NORAD_CAT_ID": 25397, "ELEMENT_SET_NO": 999, "REV_AT_EPOCH": 42325, "BSTAR": 7.5055e-05, "MEAN_MOTION_DOT": 1.27e-06, "MEAN_MOTION_DDOT": 0}, "tle": {"line1": "1 25397U 98043D   25335.95918719  .00000127  00000+0  75055-4 0  9992", "line2": "2 25397  98.9914 318.9231 0002262  75.0974 285.0454 14.24372045423255"}}, "geometry": {"type": "Point", "coordinates": [-35.35873671435194, -30.227088423696912]}}, {"type": "Feature", "properties": {"norad_id": 25504, "name": "SCD 2", "group": "resource", "lat": -22.16754075041647, "lon": 144.8187466237843, "alt_km": 741.8572701766343, "timestamp": "2025-12-02T08:59:32.375942+00:00", "meta": {"OBJECT_NAME": "SCD 2", "OBJECT_ID": "1998-060A", "EPOCH": "2025-12-01T23:26:54.737088", "MEAN_MOTION": 14.45413511, "ECCENTRICITY": 0.0016745, "INCLINATION": 24.9938, "RA_OF_ASC_NODE": 208.2619, "ARG_OF_PERICENTER": 198.6067, "MEAN_ANOMALY": 184.5013, "EPHEMERIS_TYPE": 0, "CLASSIFICATION_TYPE": "U", "NORAD_CAT_ID": 25504, "ELEMENT_SET_NO": 999, "REV_AT_EPOCH": 43176, "BSTAR": 8.5865e-05, "MEAN_MOTION_DOT": 4.9e-06, "MEAN_MOTION_DDOT": 0}, "tle": {"line1": "1 25504U 98060A   25335.97702242  .00000490  00000+0  85865-4 0  9998", "line2": "2 25504  24.9938 208.2619 0016745 198.6067 184.5013 14.45413511431763"}}, "geometry": {"type": "Point", "coordinates": [144.8187466237843, -22.16754075041647]}}, {"type": "Feature", "properties": {"norad_id": 25757, "name": "DLR-TUBSAT", "group": "resource", "lat": -44.88220652216579, "lon": 131.84363525386107, "alt_km": 715.2136624677978, "timestamp": "2025-12-02T08:59:32.375956+00:00", "meta": {"OBJECT_NAME": "DLR-TUBSAT", "OBJECT_ID": "1999-029B", "EPOCH": "2025-12-02T04:38:59.866944", "MEAN_MOTION": 14.52350918, "ECCENTRICITY": 0.0013336, "INCLINATION": 98.6554, "RA_OF_ASC_NODE": 320.3826, "ARG_OF_PERICENTER": 226.12, "MEAN_ANOMALY": 133.8894, "EPHEMERIS_TYPE": 0, "CLASSIFICATION_TYPE": "U", "NORAD_CAT_ID": 25757, "ELEMENT_SET_NO": 999, "REV_AT_EPOCH": 40465, "BSTAR": 5.3218e-05, "MEAN_MOTION_DOT": 1.68e-06, "MEAN_MOTION_DDOT": 0}, "tle": {"line1": "1 25757U 99029B   25336.19374846  .00000168  00000+0  53218-4 0  9993", "line2": "2 25757  98.6554 320.3826 0013336 226.1200 133.8894 14.52350918404651"}}, "geometry": {"type": "Point", "coordinates": [131.84363525386107, -44.88220652216579]}}, {"type": "Feature", "properties": {"norad_id": 25994, "name": "TERRA", "group": "resource", "lat": -29.878906037844956, "lon": 33.0592988916522, "alt_km": 698.1441636135605, "timestamp": "2025-12-02T08:59:32.375969+00:00", "meta": {"OBJECT_NAME": "TERRA", "OBJECT_ID": "1999-068A", "EPOCH": "2025-12-02T04:30:24.128928", "MEAN_MOTION": 14.60932373, "ECCENTRICITY": 0.0003364, "INCLINATION": 97.9764, "RA_OF_ASC_NODE": 28.2586, "ARG_OF_PERICENTER": 119.1376, "MEAN_ANOMALY": 308.3983, "EPHEMERIS_TYPE": 0, "CLASSIFICATION_TYPE": "U", "NORAD_CAT_ID": 25994, "ELEMENT_SET_NO": 999, "REV_AT_EPOCH": 38084, "BSTAR": 0.00013538, "MEAN_MOTION_DOT": 6.18e-06, "MEAN_MOTION_DDOT": 0}, "tle": {"line1": "1 25994U 99068A   25336.18777927  .00000618  00000+0  13538-3 0  9995", "line2": "2 25994  97.9764  28.2586 0003364 119.1376 308.3983 14.60932373380843"}}, "geometry": {"type": "Point", "coordinates": [33.0592988916522, -29.878906037844956]}}, {"type": "Feature", "properties": {"norad_id": 27004, "name": "MAROC-TUBSAT", "group": "resource", "lat": 78.48756144998322, "lon": 22.609089899977498, "alt_km": 1005.0919298980889, "timestamp": "2025-12-02T08:59:32.375981+00:00", "meta": {"OBJECT_NAME": "MAROC-TUBSAT", "OBJECT_ID": "2001-056D", "EPOCH": "2025-12-01T16:50:04.447104", "MEAN_MOTION": 13.70252049, "ECCENTRICITY": 0.0019117, "INCLINATION": 99.7911, "RA_OF_ASC_NODE": 143.9532, "ARG_OF_PERICENTER": 289.5393, "MEAN_ANOMALY": 87.1751, "EPHEMERIS_TYPE": 0, "CLASSIFICATION_TYPE": "U", "NORAD_CAT_ID": 27004, "ELEMENT_SET_NO": 999, "REV_AT_EPOCH": 19914, "BSTAR": 3.4234e-05, "MEAN_MOTION_DOT": -1.7e-07, "MEAN_MOTION_DDOT": 0}, "tle": {"line1": "1 27004U 01056D   25335.70144036 -.00000017  00000+0  34234-4 0  9996", "line2": "2 27004  99.7911 143.9532 0019117 289.5393  87.1751 13.70252049199142"}}, "geometry": {"type": "Point", "coordinates": [22.609089899977498, 78.48756144998322]}}, {"type": "Feature", "properties": {"norad_id": 27424, "name": "AQUA", "group": "resource", "lat": 7.420708374783549, "lon": 118.18936985782415, "alt_km": 689.2319314226324, "timestamp": "2025-12-02T08:59:32.375992+00:00", "meta": {"OBJECT_NAME": "AQUA", "OBJECT_ID": "2002-022A", "EPOCH": "2025-12-02T05:10:53.182848", "MEAN_MOTION": 14.61766875, "ECCENTRICITY": 7.21e-05, "INCLINATION": 98.4022, "RA_OF_ASC_NODE": 296.925, "ARG_OF_PERICENTER": 106.5257, "MEAN_ANOMALY": 310.7469, "EPHEMERIS_TYPE": 0, "CLASSIFICATION_TYPE": "U", "NORAD_CAT_ID": 27424, "ELEMENT_SET_NO": 999, "REV_AT_EPOCH": 25449, "BSTAR": 0.00027706, "MEAN_MOTION_DOT": 1.333e-05, "MEAN_MOTION_DDOT": 0}, "tle": {"line1": "1 27424U 02022A   25336.21589332  .00001333  00000+0  27706-3 0  9991", "line2": "2 27424  98.4022 296.9250 0000721 106.5257 310.7469 14.61766875254490"}}, "geometry": {"type": "Point", "coordinates": [118.18936985782415, 7.420708374783549]}}, {"type": "Feature", "properties": {"norad_id": 28051, "name": "IRS-P6 (RESOURCESAT-1)", "group": "resource", "lat": -79.84523955340151, "lon": 71.06350585287491, "alt_km": 758.7448641590181, "timestamp": "2025-12-02T08:59:32.376003+00:00", "meta": {"OBJECT_NAME": "IRS-P6 (RESOURCESAT-1)", "OBJECT_ID": "2003-046A", "EPOCH": "2025-12-02T04:47:15.040032", "MEAN_MOTION": 14.3606635, "ECCENTRICITY": 0.0063584, "INCLINATION": 98.2194, "RA_OF_ASC_NODE": 17.0943, "ARG_OF_PERICENTER": 212.4507, "MEAN_ANOMALY": 237.6519, "EPHEMERIS_TYPE": 0, "CLASSIFICATION_TYPE": "U", "NORAD_CAT_ID": 28051, "ELEMENT_SET_NO": 999, "REV_AT_EPOCH": 15225, "BSTAR": 0.00010198, "MEAN_MOTION_DOT": 2.62e-06, "MEAN_MOTION_DDOT": 0}, "tle": {"line1": "1 28051U 03046A   25336.19947963  .00000262  00000+0  10198-3 0  9997", "line2": "2 28051  98.2194  17.0943 0063584 212.4507 237.6519 14.36066350152254"}}, "geometry": {"type": "Point", "coordinates": [71.06350585287491, -79.84523955340151]}}, {"type": "Feature", "properties": {"norad_id": 28220, "name": "SHIYAN-1 (SY-1)", "group": "resource", "lat": -33.62791526990206, "lon": 42.60082977838053, "alt_km": 485.39381413133196, "timestamp": "2025-12-02T08:59:32.376015+00:00", "meta": {"OBJECT_NAME": "SHIYAN-1 (SY-1)", "OBJECT_ID": "2004-012A", "EPOCH": "2025-12-01T17:25:15.174912", "MEAN_MOTION": 15.27700086, "ECCENTRICITY": 0.0006423, "INCLINATION": 97.8959, "RA_OF_ASC_NODE": 36.6177, "ARG_OF_PERICENTER": 6.0937, "MEAN_ANOMALY": 354.0378, "EPHEMERIS_TYPE": 0, "CLASSIFICATION_TYPE": "U", "NORAD_CAT_ID": 28220, "ELEMENT_SET_NO": 999, "REV_AT_EPOCH": 18088, "BSTAR": 0.00050712, "MEAN_MOTION_DOT": 0.00013664, "MEAN_MOTION_DDOT": 0}, "tle": {"line1": "1 28220U 04012A   25335.72587008  .00013664  00000+0  50712-3 0  9993", "line2": "2 28220  97.8959  36.6177 0006423   6.0937 354.0378 15.27700086180884"}}, "geometry": {"type": "Point", "coordinates": [42.60082977838053, -33.62791526990206]}}, {"type": "Feature", "properties": {"norad_id": 28376, "name": "AURA", "group": "resource", "lat": -23.98630657772084, "lon": -69.71404580567446, "alt_km": 696.0500859794356, "timestamp": "2025-12-02T08:59:32.376026+00:00", "meta": {"OBJECT_NAME": "AURA", "OBJECT_ID": "2004-026A", "EPOCH": "2025-12-01T19:57:10.045728", "MEAN_MOTION": 14.60903177, "ECCENTRICITY": 0.0001064, "INCLINATION": 98.3168, "RA_OF_ASC_NODE": 286.0085, "ARG_OF_PERICENTER": 89.7907, "MEAN_ANOMALY": 270.3415, "EPHEMERIS_TYPE": 0, "CLASSIFICATION_TYPE": "U", "NORAD_CAT_ID": 28376, "ELEMENT_SET_NO": 999, "REV_AT_EPOCH": 13739, "BSTAR": 0.00026623, "MEAN_MOTION_DOT": 1.255e-05, "MEAN_MOTION_DDOT": 0}, "tle": {"line1": "1 28376U 04026A   25335.83136627  .00001255  00000+0  26623-3 0  9996", "line2": "2 28376  98.3168 286.0085 0001064  89.7907 270.3415 14.60903177137396"}}, "geometry": {"type": "Point", "coordinates": [-69.71404580567446, -23.98630657772084]}}]}